NUSAT-1 (FRESCO)        
1 41557U 16033B   21348.50898238  .00002200  00000+0  76696-4 0  9997
2 41557  97.3928  81.5634 0011276 321.7518  93.6203 15.30669513309063
BEESAT-4                
1 41619U 16040W   21348.57903709  .00003032  00000+0  11762-3 0  9997
2 41619  97.2470  39.5108 0011702  59.4960 300.7433 15.26806410292480
CAS-2T & KS-1Q          
1 41847U 16066G   21348.52169561  .00000128  00000+0  28955-4 0  9999
2 41847  98.5790  48.1831 0365653  42.8604 320.0475 14.38299878267769
NAYIF-1 (EO-88)         
1 42017U 17008BX  21348.42414822  .00003339  00000+0  11881-3 0  9994
2 42017  97.2968  52.7442 0005812 173.1333 186.9988 15.29642230268759
ZHUHAI-1 02 (CAS-4B)    
1 42759U 17034B   21348.51823792  .00000701  00000+0  54881-4 0  9994
2 42759  43.0181 270.8939 0008261 218.7287 310.3901 15.10611240248378
ZHUHAI-1 01 (CAS-4A)    
1 42761U 17034D   21348.29533318  .00000517  00000+0  43880-4 0  9996
2 42761  43.0180 271.0431 0008770 218.2850 283.0046 15.10696251248344
MAX VALIER SAT          
1 42778U 17036P   21348.54104497  .00001743  00000+0  73782-4 0  9992
2 42778  97.2330  31.0959 0009919 258.8241 101.1882 15.24427308248718
RADFXSAT (FOX-1B)       
1 43017U 17073E   21348.47409974  .00000910  00000+0  73944-4 0  9995
2 43017  97.6923 245.1950 0254795  72.8323 290.0614 14.80006103219744
FOX-1D (AO-92)          
1 43137U 18004AC  21348.43408978  .00002036  00000+0  81454-4 0  9998
2 43137  97.3912  60.5546 0007062 302.0313  58.0239 15.26225692218103
DIWATA-2B               
1 43678U 18084H   21348.48172412  .00000182  00000+0  23797-4 0  9998
2 43678  97.9465 114.9558 0010020 168.4256 191.7179 14.91850749170278
ES'HAIL 2               
1 43700U 18090A   21348.50376958  .00000157  00000+0  00000+0 0  9994
2 43700   0.0130 305.1551 0002177 337.8810   7.5235  1.00272455 11175
FOX-1CLIFF (AO-95)      
1 43770U 18099N   21348.44190424  .00000151  00000+0  18673-4 0  9999
2 43770  97.6465  54.4846 0014677 170.5477 189.6023 14.95586763165350
ITASAT 1                
1 43786U 18099AE  21348.46142249  .00000650  00000+0  63174-4 0  9990
2 43786  97.6486  55.3062 0015626 163.5744 196.5987 14.95844356165399
JY1SAT (JO-97)          
1 43803U 18099AX  21348.45961941  .00000727  00000+0  69475-4 0  9992
2 43803  97.6447  55.0419 0015583 163.2788 196.8950 14.96147028165404
UWE-4                   
1 43880U 18111E   21348.52217310  .00000112  00000+0  14709-4 0  9992
2 43880  97.6780 253.0817 0011088 216.9187 143.1272 14.97173495162021
NEXUS (FO-99)           
1 43937U 19003F   21348.55316276  .00002744  00000+0  10570-3 0  9994
2 43937  97.1559  24.4159 0024274  93.1353 267.2664 15.26894264161730
PSAT2 (NO-104)          
1 44354U 19036R   21348.37323423  .00013856  00000+0  16429-3 0  9991
2 44354  28.5263   1.3630 0296293  76.8353 286.5124 15.21330157136325
BRICSAT2 (NO-103)       
1 44355U 19036S   21348.51172358  .00041829 -60470-5  32563-3 0  9999
2 44355  28.5250 277.6492 0198164 213.2187 145.5835 15.47927665137177
JAISAT-1                
1 44419U 19038F   21348.46129978  .00001800  00000+0  10072-3 0  9998
2 44419  97.6132 312.8250 0022170  53.8658 306.4621 15.14570280135037
DUCHIFAT-3              
1 44854U 19089C   21348.49868245  .00000699  00000+0  61632-4 0  9991
2 44854  36.9631 115.6357 0006822 164.0580 196.0379 14.99851249110149
CAS-6 (TO-108)          
1 44881U 19093C   21348.53175363  .00000095  00000+0  18877-4 0  9996
2 44881  97.9116  65.2718 0016444  69.8321 290.4662 14.81521616107391
RS-44 & BREEZE-KM R/B   
1 44909U 19096E   21348.52497378  .00000028  00000+0  64326-4 0  9998
2 44909  82.5212 353.1609 0218021  32.3795 329.0471 12.79711482 91859
ORBITAL FACTORY 2 (OF-2)
1 45113U 19071C   21348.41756659  .00003747  00000+0  10927-3 0  9995
2 45113  51.6408 243.7424 0010646 218.6398 141.3825 15.37906352104842
HUSKYSAT-1 (HO-107)     
1 45119U 19071J   21348.56418611  .00004045  00000+0  11764-3 0  9992
2 45119  51.6408 242.4597 0010225 215.5580 144.4723 15.37761993104860
BY70-2                  
1 45857U 20042B   21348.47197532  .00001431  00000+0  20691-3 0  9992
2 45857  97.9726  62.3032 0010233   0.9521 359.1709 14.77678665 78122
SALSAT                  
1 46495U 20068K   21348.54580893  .00000099  00000+0  11779-4 0  9990
2 46495  97.7106 285.1371 0016663 176.1629 183.9724 15.03709171 66393
BY70-3                  
1 46839U 20079N   21348.56322287  .00003788  00000+0  11193-3 0  9994
2 46839  97.2240  58.8630 0005212 282.1597 185.2214 15.35535779 61820
RADFXSAT-2 (AO-109)     
1 47311U 21002C   21348.28940274  .00001133  00000+0  59705-4 0  9992
2 47311  60.6859 337.5934 0033808 139.0875 221.2759 15.22543892 50241
UVSQ-SAT                
1 47438U 21006AB  21348.42223319  .00001230  00000+0  71772-4 0  9992
2 47438  97.4658  46.2541 0012294 189.5318 170.5682 15.13730355 49276
DIY-1 (ARDUIQUBE)       
1 47963U 21022AH  21348.53771293  .00003837  00000+0  24839-3 0  9990
2 47963  97.5458 247.6598 0020583  50.9084 309.3971 15.08576559 39032
